OBJECT_NAME,OBJECT_ID,EPOCH,MEAN_MOTION,ECCENTRICITY,INCLINATION,RA_OF_ASC_NODE,ARG_OF_PERICENTER,MEAN_ANOMALY,EPHEMERIS_TYPE,CLASSIFICATION_TYPE,NORAD_CAT_ID,ELEMENT_SET_NO,REV_AT_EPOCH,BSTAR,MEAN_MOTION_DOT,MEAN_MOTION_DDOT
SUOMI NPP,2011-061A,2026-06-11T23:36:23.097888,14.19516304,.00018212,98.7954,103.8952,18.5029,341.6213,0,U,37849,999,75770,.3930979E-4,.39E-6,0
YAOGAN-12,2011-066B,2026-06-11T22:57:05.641056,15.26540160,.00082447,97.1156,201.7697,237.9866,122.0572,0,U,37875,999,81124,.2417817E-3,.6255E-4,0
BEIDOU-2 M4,2012-018B,2026-06-11T05:08:46.250880,1.86229738,.0011155,55.6637,304.2915,276.7325,83.1254,0,U,38251,999,9583,0,-.65E-6,0
ARIRANG-3 (KOMPSAT-3),2012-025B,2026-06-11T23:15:07.669728,14.62201555,.00064732,98.1176,120.5189,122.6159,237.5668,0,U,38338,999,75058,.77787003E-4,.345E-5,0
HORYU-2,2012-025D,2026-06-11T14:27:09.572832,14.91035772,.0007857,98.2166,295.3107,191.6042,168.4995,0,U,38340,999,74789,.29547E-3,.2864E-4,0
CSSWE,2012-048D,2026-06-11T14:14:46.423104,15.44191175,.0047986,64.6613,112.4357,175.4828,184.6753,0,U,38761,999,11553,.50852E-3,.24311E-3,0
CP5,2012-048F,2026-06-11T10:30:19.372608,15.27636018,.0079364,64.6431,171.5872,178.1546,181.9892,0,U,38763,999,11588,.28842E-3,.8362E-4,0
METOP-B,2012-049A,2026-06-11T21:50:47.628672,14.21431261,.00025529,98.6506,214.5146,32.3553,327.7780,0,U,38771,999,71251,.57530088E-4,.82E-6,0
SJ-9A,2012-056A,2026-06-11T21:50:56.162400,14.85469132,.00239499,97.6706,135.0527,275.2288,84.6194,0,U,38860,999,69880,.12490162E-3,.103E-4,0
COSMOS 2484 (RODNIK-S 6),2013-001C,2026-06-11T21:56:09.331296,12.42938739,.00270774,82.5022,225.1706,47.8454,312.4920,0,U,39059,999,60790,-.1919176E-3,-.17E-6,0
SARAL,2013-009A,2026-06-11T22:38:18.570336,14.32854655,.00009855,98.5557,349.5770,338.2856,21.8286,0,U,39086,999,69485,.46581505E-4,.83E-6,0
AAUSAT 3,2013-009B,2026-06-11T11:35:00.230784,14.39932280,.0010443,98.3701,346.4066,224.8264,135.2082,0,U,39087,999,69635,.18136E-3,.528E-5,0
STRAND-1,2013-009E,2026-06-11T11:40:12.874368,14.37160014,.0007504,98.3921,342.8611,244.6927,115.3483,0,U,39090,999,69624,.10129E-3,.258E-5,0
BRITE-AUSTRIA,2013-009F,2026-06-11T10:14:54.820032,14.36539758,.0008992,98.3993,342.0054,255.9460,104.0727,0,U,39091,999,69622,.6267E-4,.141E-5,0
UNIBRITE,2013-009G,2026-06-11T10:31:49.842048,14.36410969,.0007931,98.4032,342.1265,251.7028,108.3296,0,U,39092,999,69616,.6741E-4,.155E-5,0
AIST-2 (RS43),2013-015D,2026-06-11T22:46:59.128608,15.26246778,.00189715,64.8696,274.4584,246.7017,113.2117,0,U,39133,999,72310,.21761965E-3,.5481E-4,0
GAOFEN-1,2013-018A,2026-06-11T23:31:51.775968,14.76531033,.00157419,97.9097,235.1539,284.8038,75.1428,0,U,39150,999,70747,.29545148E-4,.155E-5,0
NEE-01 PEGASO,2013-018B,2026-06-11T08:53:19.823712,14.93633706,.0012644,98.1214,306.3290,177.4473,182.6812,0,U,39151,999,70983,.17424E-3,.1781E-4,0
TURKSAT-3USAT,2013-018C,2026-06-11T22:22:39.874944,14.96394493,.00135751,97.7928,253.7791,116.0122,244.2499,0,U,39152,999,71030,.32193381E-3,.3595E-4,0
CUBEBUG-1 (CAPITAN BETO),2013-018D,2026-06-11T22:56:00.269952,14.97268975,.00117209,98.1656,322.6647,161.0197,199.1462,0,U,39153,999,71028,.21216452E-3,.2397E-4,0
PROBA-V,2013-021A,2026-06-11T22:02:02.227776,14.23595922,.00049352,98.3582,141.7849,135.9926,224.1647,0,U,39159,999,68036,.43411016E-4,.58E-6,0
ESTCUBE 1,2013-021C,2026-06-11T15:44:36.822336,14.81384281,.00090592,97.7296,217.0355,42.0052,318.1855,0,U,39161,999,70420,.18577332E-3,.1403E-4,0
ARIRANG-5 (KOMPSAT-5),2013-042A,2026-06-11T23:28:49.550592,15.04479060,.00048477,97.6216,349.7528,133.9411,226.2215,0,U,39227,999,70307,.11739703E-3,.1582E-4,0
GONETS-M 5,2013-048A,2026-06-11T23:06:53.155872,12.42891545,.00158877,82.4835,346.6405,222.3393,137.6462,0,U,39249,999,57823,.97975232E-4,.23E-6,0
GONETS-M 7,2013-048C,2026-06-11T22:13:40.930752,12.42914562,.0016683,82.4903,349.5831,223.8490,136.1266,0,U,39251,999,57818,.40062395E-3,.65E-6,0
FENGYUN 3C,2013-052A,2026-06-11T22:55:39.755136,14.15753914,.00155032,98.4976,137.0704,41.9911,318.2450,0,U,39260,999,65782,.5802973E-4,.73E-6,0
CASSIOPE,2013-055A,2026-06-11T21:54:28.315008,15.24695920,.0294693,80.9146,73.1230,80.1366,283.2997,0,U,39265,999,66686,.47636217E-3,.43419E-3,-.546477E-6
APRIZESAT 7,2013-066A,2026-06-11T20:30:02.455776,14.91552666,.00346074,97.7708,116.1509,227.3675,132.4625,0,U,39416,999,68043,.77271577E-4,.725E-5,0
ZACUBE-1 (TSHEPISOSAT),2013-066B,2026-06-11T19:23:46.826304,15.01156095,.00402396,97.8084,125.1158,266.5236,93.1385,0,U,39417,999,67992,.24384002E-3,.3114E-4,0
APRIZESAT 8,2013-066K,2026-06-11T19:52:02.059104,14.87642384,.00446483,97.8220,110.3705,304.7478,54.9538,0,U,39425,999,67887,.98864579E-4,.858E-5,0
